OPTICUBE 04             
1 41851U 16067D   24301.45807799  .00009389  00000+0  67237-3 0  9994
2 41851  98.0856 112.1982 0016892 337.0341  23.0127 15.04528007435119
AEROCUBE 8D             
1 41852U 16067E   24301.47949131  .00020436  00000+0  12100-2 0  9998
2 41852  98.1132 118.2886 0005167  32.8148 327.3400 15.11443931435356
AEROCUBE 8C             
1 41853U 16067F   24301.42912460  .00022378  00000+0  13240-2 0  9992
2 41853  98.0954 116.4940 0006635 318.4716  41.6008 15.11443228435331
PROMETHEUS 2-1          
1 41854U 16067G   24301.49767734  .00054273  00000+0  21229-2 0  9997
2 41854  98.0977 126.4832 0010299 326.3559  33.7022 15.25597495435847
PROMETHEUS 2-3          
1 41855U 16067H   24301.49870842  .00054151  00000+0  21240-2 0  9991
2 41855  98.0920 125.8445 0008921 337.3483  22.7358 15.25517478435849
CORVUS BC2              
1 42846U 17042X   24301.46374426  .00012322  00000+0  99966-3 0  9995
2 42846  97.3784 119.3978 0008272 348.3050  11.7980 14.99765183397259
CORVUS BC1              
1 42847U 17042Y   24301.74455703  .00011366  00000+0  91926-3 0  9990
2 42847  97.3737 120.0863 0008511 331.2744  28.8010 14.99901406397317
MIRATA                  
1 43015U 17073C   24301.41536937  .00067188  00000+0  24718-2 0  9992
2 43015  97.5720 185.3364 0143378 164.9143 195.6437 15.18431558376315
MAKERSAT 0              
1 43016U 17073D   24301.16429984  .00035207  00000+0  17812-2 0  9992
2 43016  97.5486 176.7773 0175822 194.2344 165.3895 15.04407679375718
SIRION PATHFINDER-2     
1 43759U 18099B   24301.56321092  .00017313  00000+0  12054-2 0  9991
2 43759  97.5136 354.0883 0010372 190.2330 169.8687 15.05474118322405
CORVUS BC4              
1 43767U 18099K   24301.60144787  .00014162  00000+0  10147-2 0  9999
2 43767  97.4968 350.9021 0008028 249.1078 110.9289 15.04463455322285
MOVE-II                 
1 43780U 18099Y   24301.44675314  .00087064  00000+0  32389-2 0  9994
2 43780  97.5037   3.9753 0004682 225.0881 134.9979 15.27140340323027
SPACEBEE-7              
1 43816U 18099BL  24301.13632453  .00053042  00000+0  25335-2 0  9999
2 43816  97.5319   3.6973 0008787 184.1032 176.0131 15.18808264322385
SPACEBEE-6              
1 43818U 18099BN  24301.59922680  .00183390  00000+0  38173-2 0  9999
2 43818  97.5218  12.7623 0006036 186.8238 173.2929 15.44900092323173
SHIELDS 1               
1 43850U 18104B   24301.43581126  .00043321  00000+0  92795-3 0  9991
2 43850  85.0249 192.9660 0006805 309.2428  50.8221 15.44565660326528
SONATE                  
1 44400U 19038Q   24301.49579140  .00066343  00000+0  14139-2 0  9993
2 44400  97.7159 302.4273 0013107   7.4269 352.7170 15.44599680294420
LUCKY-7                 
1 44406U 19038W   24301.47523355  .00227575  00000+0  18981-2 0  9999
2 44406  97.6964 309.4415 0005507   0.6621 359.4646 15.69358730294907
DUCHIFAT-3              
1 44854U 19089C   24301.44531989  .00051956  00000+0  20582-2 0  9999
2 44854  36.9544 321.8825 0009278 149.5167 210.6124 15.24397158268407
M2 PATHFINDER           
1 45727U 20037E   24301.44848387  .00011567  00000+0  95636-3 0  9994
2 45727  97.7828 117.4080 0012682  49.3813 310.8510 14.99027243235746
NETSAT-4                
1 46504U 20068U   24301.43243145  .00030786  00000+0  14226-2 0  9991
2 46504  97.8204 262.6644 0006100 266.9376  93.1160 15.20111199224229
NETSAT-3                
1 46505U 20068V   24301.46863856  .00029173  00000+0  13730-2 0  9999
2 46505  97.8186 262.0430 0005800 282.6747  77.3838 15.19490872224210
NETSAT-1                
1 46506U 20068W   24301.43256085  .00024001  00000+0  12189-2 0  9999
2 46506  97.8213 261.0924 0005270 298.9040  61.1663 15.16882140224145
NETSAT-2                
1 46507U 20068X   24301.38703001  .00029266  00000+0  13566-2 0  9997
2 46507  97.8185 262.2121 0004329 311.2629  48.8231 15.20022399224164
WILDTRACKCUBE-SIMBA     
1 47941U 21022K   24301.83699360  .00050520  00000+0  18088-2 0  9994
2 47941  97.4421 197.8489 0015676  45.2677 314.9836 15.28478603198675
GRBALPHA                
1 47959U 21022AD  24301.83158976  .00082611  00000+0  22703-2 0  9991
2 47959  97.4416 200.8743 0013637  38.8810 321.3412 15.36810227197692
BEESAT-8                
1 48085U 21022AP  24301.48508111  .00132003  00000+0  24207-2 0  9995
2 48085  97.4666 206.0843 0010785  35.1811 325.0150 15.48745508198223
LEDSAT                  
1 49069U 21073D   24301.63192249  .00057423  00000+0  17563-2 0  9991
2 49069  97.4230  12.4672 0016487 171.7963 188.3552 15.33517225176681
ROBUSTA-1F (MTCUBE 2)   
1 53109U 22080E   24301.54092252 -.00000003  00000+0  00000+0 0  9991
2 53109  70.1158 146.1070 0008326  60.2568 299.8919  6.42584206 53661
SITRO-AIS 5 (KATYS)     
1 57176U 23091L   24301.87338453  .00027739  00000+0  15864-2 0  9995
2 57176  97.5964 353.1272 0017105  32.5765 327.6517 15.12508997 73528
SITRO-AIS 6 (CHIRKIN)   
1 57192U 23091AC  24301.85438942  .00027133  00000+0  15511-2 0  9992
2 57192  97.5958 353.1392 0016849  32.0115 328.2136 15.12532655 73522
SITRO-AIS 8 (ANOKHIN)   
1 57193U 23091AD  24301.84948647  .00029135  00000+0  16363-2 0  9990
2 57193  97.5955 353.2883 0016458  32.8163 327.4086 15.13157790 73533
SITRO-AIS 7 (FARTUSHNIY)
1 57194U 23091AE  24301.86450128  .00026480  00000+0  15171-2 0  9991
2 57194  97.5960 353.1169 0016817  33.0022 327.2254 15.12459424 73524
SITRO-AIS 10 (BURDAEV)  
1 57199U 23091AK  24301.84543392  .00032975  00000+0  17418-2 0  9992
2 57199  97.5971 354.6123 0011581  21.9508 338.2217 15.15374090 73614
SITRO-AIS 9 (SHCHUKIN)  
1 57201U 23091AM  24301.84612777  .00031369  00000+0  16596-2 0  9992
2 57201  97.5966 354.5798 0011540  22.0471 338.1255 15.15329841 73610
SITRO-AIS 12 (SMIRENNIY)
1 57204U 23091AQ  24301.85760033  .00031446  00000+0  16545-2 0  9995
2 57204  97.5974 354.7770 0011331  16.4840 343.6758 15.15527450 73625
SITRO-AIS 11 (SHEFFER)  
1 57208U 23091AU  24301.83400626  .00032633  00000+0  17105-2 0  9998
2 57208  97.5975 354.7939 0011177  16.6308 343.5289 15.15653736 73621
VERONIKA                
1 58261U 23174F   24301.78749397  .00075260  00000+0  24789-2 0  9994
2 58261  97.4470  16.0400 0010674 134.9681 225.2428 15.31135779 53922
ROBUSTA-1E (ENSO)       
1 58470U 23185J   24301.85932084  .00062769  00000+0  20401-2 0  9990
2 58470  97.4105   7.7351 0011155 164.8464 195.3114 15.31619526 50380
SITRO-AIS 29            
1 59052U 24039B   24301.88617062  .00089766  00000+0  22199-2 0  9997
2 59052  97.4044 263.8612 0018279  99.9178 260.4132 15.39953048 36924
SITRO-AIS 30            
1 59053U 24039C   24301.83475400  .00085632  00000+0  21433-2 0  9999
2 59053  97.4046 263.7713 0018468 100.9672 259.3653 15.39599980 36904
SITRO-AIS 31            
1 59054U 24039D   24301.87585275  .00090329  00000+0  22361-2 0  9996
2 59054  97.4044 263.8698 0018156 100.7165 259.6126 15.39922137 36930
SITRO-AIS 33            
1 59055U 24039E   24301.85724553  .00086489  00000+0  21357-2 0  9995
2 59055  97.4047 263.9055 0017876 101.2197 259.1059 15.40019409 36921
SITRO-AIS 35            
1 59056U 24039F   24301.85242247  .00087428  00000+0  21583-2 0  9996
2 59056  97.4046 263.9073 0017754 101.3537 258.9704 15.40026111 36927
SITRO-AIS 32            
1 59057U 24039G   24301.87262819  .00089783  00000+0  22335-2 0  9998
2 59057  97.4051 263.8849 0017967 101.6330 258.6933 15.39778455 36928
SITRO-AIS 34            
1 59058U 24039H   24301.85709850  .00088272  00000+0  21758-2 0  9998
2 59058  97.4048 263.9076 0017727 101.2645 259.0594 15.40069717 36921
SITRO-AIS 36            
1 59059U 24039J   24301.83981981  .00085394  00000+0  20997-2 0  9990
2 59059  97.4047 263.9246 0017715 101.5908 258.7327 15.40156700 36921
SITRO-AIS 49            
1 59060U 24039K   24301.84921614  .00081609  00000+0  20231-2 0  9996
2 59060  97.4051 263.9140 0017676 100.8792 259.4444 15.39924424 36922
SITRO-AIS 50            
1 59061U 24039L   24301.88332037  .00087594  00000+0  21350-2 0  9998
2 59061  97.4046 264.0170 0017626 100.7122 259.6109 15.40415598 36933
SITRO-AIS 51            
1 59062U 24039M   24301.81755775  .00092188  00000+0  22470-2 0  9999
2 59062  97.4044 263.9513 0017582 101.4276 258.8946 15.40396822 36927
SITRO-AIS 52            
1 59063U 24039N   24301.86682493  .00095286  00000+0  23110-2 0  9995
2 59063  97.4046 264.0416 0017306 100.9881 259.3313 15.40539752 36930
SITRO-AIS 25            
1 59066U 24039R   24301.84694099  .00015777  00000+0  14385-2 0  9992
2 59066  95.3907 187.2903 0162625 245.7681 112.6474 14.85529345 35780
SITRO-AIS 26            
1 59067U 24039S   24301.85190849  .00016088  00000+0  14706-2 0  9991
2 59067  95.3907 187.2851 0162745 245.8226 112.5909 14.85416974 35787
SITRO-AIS 27            
1 59068U 24039T   24301.82482077  .00015783  00000+0  14353-2 0  9995
2 59068  95.3906 187.3155 0162228 245.6135 112.8082 14.85668884 35782
SITRO-AIS 28            
1 59071U 24039U   24301.81818507  .00015860  00000+0  14410-2 0  9999
2 59071  95.3907 187.3242 0162077 245.5960 112.8275 14.85718853 35787
GRBBETA                 
1 60237U 24128C   24301.28998100  .00011845  00000+0  98632-3 0  9991
2 60237  61.9929 142.9476 0022877 356.4890   3.6035 14.98828901 16385
OOV-CUBE (TUBSAT-30)    
1 60240U 24128F   24301.54732422  .00007965  00000+0  68916-3 0  9997
2 60240  61.9969 142.5676 0021063 350.6602   9.4092 14.97707542 16422
ROBUSTA-3A (MEDITERRAN*)
1 60243U 24128J   24301.54561280  .00017798  00000+0  14804-2 0  9993
2 60243  61.9905 142.4734 0021076 341.6718  18.3609 14.98650304 16428
